{
    "links": {
        "self": "http://www.neowsapp.com/rest/v1/neo/3797898?api_key=iIulBulltgU6a56xZRHN4H3l9WmuAYTsLGpBGhQ2"
    },
    "id": "3797898",
    "neo_reference_id": "3797898",
    "name": "(2018 BC5)",
    "designation": "2018 BC5",
    "nasa_jpl_url": "http://ssd.jpl.nasa.gov/sbdb.cgi?sstr=3797898",
    "absolute_magnitude_h": 23.8,
    "estimated_diameter": {
        "kilometers": {
            "estimated_diameter_min": 0.046190746,
            "estimated_diameter_max": 0.1032856481
        },
        "meters": {
            "estimated_diameter_min": 46.1907460282,
            "estimated_diameter_max": 103.2856480504
        },
        "miles": {
            "estimated_diameter_min": 0.0287015901,
            "estimated_diameter_max": 0.0641787064
        },
        "feet": {
            "estimated_diameter_min": 151.544447199,
            "estimated_diameter_max": 338.8636855496
        }
    },
    "is_potentially_hazardous_asteroid": false,
    "close_approach_data": [
        {
            "close_approach_date": "2018-02-04",
            "close_approach_date_full": "2018-Feb-04 11:48",
            "epoch_date_close_approach": 1517744880000,
            "relative_velocity": {
                "kilometers_per_second": "9.9837025608",
                "kilometers_per_hour": "35941.3292188845",
                "miles_per_hour": "22332.5442582563"
            },
            "miss_distance": {
                "astronomical": "0.1384897709",
                "lunar": "53.8725208801",
                "kilometers": "20717774.743427983",
                "miles": "12873428.2767648454"
            },
            "orbiting_body": "Earth"
        }
    ],
    "orbital_data": {
        "orbit_id": "2",
        "orbit_determination_date": "2018-02-07 06:54:58",
        "first_observation_date": "2018-01-15",
        "last_observation_date": "2018-02-07",
        "data_arc_in_days": 23,
        "observations_used": 21,
        "orbit_uncertainty": "7",
        "minimum_orbit_intersection": ".0712578",
        "jupiter_tisserand_invariant": "3.403",
        "epoch_osculation": "2459000.5",
        "eccentricity": ".5410882939133828",
        "semi_major_axis": "2.265281343392004",
        "inclination": "4.801885206590786",
        "ascending_node_longitude": "120.2877502143487",
        "orbital_period": "1245.32196762498",
        "perihelion_distance": "1.039564126062209",
        "perihelion_argument": "41.36505959073043",
        "aphelion_distance": "3.490998560721799",
        "perihelion_time": "2459416.770371904415",
        "mean_anomaly": "239.6637835182573",
        "mean_motion": ".2890818674680373",
        "equinox": "J2000",
        "orbit_class": {
            "orbit_class_type": "AMO",
            "orbit_class_description": "Near-Earth asteroid orbits similar to that of 1221 Amor",
            "orbit_class_range": "1.017 AU < q (perihelion) < 1.3 AU"
        }
    },
    "is_sentry_object": false
}